[{"OBJECT_NAME":"LEMUR-2-JK0903EM1407","OBJECT_ID":"2023-174CJ","EPOCH":"2026-03-05T17:25:05.591424","MEAN_MOTION":15.46430929,"ECCENTRICITY":0.00062338,"INCLINATION":97.3925,"RA_OF_ASC_NODE":152.7243,"ARG_OF_PERICENTER":128.9049,"MEAN_ANOMALY":231.2757,"EPHEMERIS_TYPE":0,"CLASSIFICATION_TYPE":"U","NORAD_CAT_ID":58336,"ELEMENT_SET_NO":999,"REV_AT_EPOCH":12971,"BSTAR":0.0005989054,"MEAN_MOTION_DOT":0.00029649,"MEAN_MOTION_DDOT":0},{"OBJECT_NAME":"LEMUR-2-MJR092620","OBJECT_ID":"2023-174CN","EPOCH":"2026-03-05T17:51:32.110560","MEAN_MOTION":15.42006698,"ECCENTRICITY":0.00081166,"INCLINATION":97.3992,"RA_OF_ASC_NODE":153.1186,"ARG_OF_PERICENTER":126.9739,"MEAN_ANOMALY":233.2252,"EPHEMERIS_TYPE":0,"CLASSIFICATION_TYPE":"U","NORAD_CAT_ID":58340,"ELEMENT_SET_NO":999,"REV_AT_EPOCH":12969,"BSTAR":0.00036735448,"MEAN_MOTION_DOT":0.00015604,"MEAN_MOTION_DDOT":0},{"OBJECT_NAME":"LEMUR-2-NIMBUS2000","OBJECT_ID":"2024-022A","EPOCH":"2026-03-05T15:42:00.837504","MEAN_MOTION":15.36587788,"ECCENTRICITY":0.00104804,"INCLINATION":97.4226,"RA_OF_ASC_NODE":273.531,"ARG_OF_PERICENTER":126.2084,"MEAN_ANOMALY":234.0131,"EPHEMERIS_TYPE":0,"CLASSIFICATION_TYPE":"U","NORAD_CAT_ID":58899,"ELEMENT_SET_NO":999,"REV_AT_EPOCH":11635,"BSTAR":0.00060560905,"MEAN_MOTION_DOT":0.00021622,"MEAN_MOTION_DDOT":0},{"OBJECT_NAME":"LEMUR-2-VALHALLA","OBJECT_ID":"2024-022B","EPOCH":"2026-03-05T13:37:18.181920","MEAN_MOTION":15.36347625,"ECCENTRICITY":0.0011078,"INCLINATION":97.4223,"RA_OF_ASC_NODE":273.4788,"ARG_OF_PERICENTER":122.3848,"MEAN_ANOMALY":237.8469,"EPHEMERIS_TYPE":0,"CLASSIFICATION_TYPE":"U","NORAD_CAT_ID":58900,"ELEMENT_SET_NO":999,"REV_AT_EPOCH":11634,"BSTAR":0.00058648,"MEAN_MOTION_DOT":0.00020778,"MEAN_MOTION_DDOT":0},{"OBJECT_NAME":"LEMUR-2-OBA-NI-JESU","OBJECT_ID":"2024-022D","EPOCH":"2026-03-05T13:47:56.490432","MEAN_MOTION":15.64447647,"ECCENTRICITY":0.0005096,"INCLINATION":97.406,"RA_OF_ASC_NODE":282.4241,"ARG_OF_PERICENTER":83.4339,"MEAN_ANOMALY":276.75,"EPHEMERIS_TYPE":0,"CLASSIFICATION_TYPE":"U","NORAD_CAT_ID":58902,"ELEMENT_SET_NO":999,"REV_AT_EPOCH":11695,"BSTAR":0.0010902,"MEAN_MOTION_DOT":0.00105683,"MEAN_MOTION_DDOT":0},{"OBJECT_NAME":"LEMUR-2-CAEL","OBJECT_ID":"2024-022E","EPOCH":"2026-03-05T12:40:40.255680","MEAN_MOTION":15.37482559,"ECCENTRICITY":0.0009427,"INCLINATION":97.4213,"RA_OF_ASC_NODE":274.2063,"ARG_OF_PERICENTER":106.9855,"MEAN_ANOMALY":253.2423,"EPHEMERIS_TYPE":0,"CLASSIFICATION_TYPE":"U","NORAD_CAT_ID":58903,"ELEMENT_SET_NO":999,"REV_AT_EPOCH":11639,"BSTAR":0.00059909,"MEAN_MOTION_DOT":0.00022008,"MEAN_MOTION_DDOT":0},{"OBJECT_NAME":"LEMUR-2-JOHNNYTRUONG","OBJECT_ID":"2024-043BA","EPOCH":"2026-03-05T23:30:30.848544","MEAN_MOTION":15.52781796,"ECCENTRICITY":0.0005381,"INCLINATION":97.5258,"RA_OF_ASC_NODE":210.9657,"ARG_OF_PERICENTER":196.5781,"MEAN_ANOMALY":163.5296,"EPHEMERIS_TYPE":0,"CLASSIFICATION_TYPE":"U","NORAD_CAT_ID":59146,"ELEMENT_SET_NO":999,"REV_AT_EPOCH":11198,"BSTAR":0.00062880753,"MEAN_MOTION_DOT":0.00038955,"MEAN_MOTION_DDOT":0},{"OBJECT_NAME":"LEMUR-2-TOMATOKECHUP","OBJECT_ID":"2024-149D","EPOCH":"2026-03-05T17:05:50.210016","MEAN_MOTION":15.33630523,"ECCENTRICITY":0.00010939,"INCLINATION":97.3852,"RA_OF_ASC_NODE":146.6557,"ARG_OF_PERICENTER":196.815,"MEAN_ANOMALY":163.3056,"EPHEMERIS_TYPE":0,"CLASSIFICATION_TYPE":"U","NORAD_CAT_ID":60471,"ELEMENT_SET_NO":999,"REV_AT_EPOCH":8629,"BSTAR":0.00045571829,"MEAN_MOTION_DOT":0.00014751,"MEAN_MOTION_DDOT":0},{"OBJECT_NAME":"LEMUR-2-STELLA","OBJECT_ID":"2024-149BT","EPOCH":"2026-03-05T19:33:59.862816","MEAN_MOTION":15.09334481,"ECCENTRICITY":0.00016871,"INCLINATION":97.6783,"RA_OF_ASC_NODE":146.9963,"ARG_OF_PERICENTER":93.9253,"MEAN_ANOMALY":266.2168,"EPHEMERIS_TYPE":0,"CLASSIFICATION_TYPE":"U","NORAD_CAT_ID":60533,"ELEMENT_SET_NO":999,"REV_AT_EPOCH":8489,"BSTAR":0.0008578877,"MEAN_MOTION_DOT":0.00013639,"MEAN_MOTION_DDOT":0},{"OBJECT_NAME":"LEMUR-2-MARHISYAM","OBJECT_ID":"2024-149BW","EPOCH":"2026-03-05T16:41:12.138432","MEAN_MOTION":15.0888441,"ECCENTRICITY":0.00034016,"INCLINATION":97.6926,"RA_OF_ASC_NODE":147.2117,"ARG_OF_PERICENTER":115.7232,"MEAN_ANOMALY":244.4348,"EPHEMERIS_TYPE":0,"CLASSIFICATION_TYPE":"U","NORAD_CAT_ID":60536,"ELEMENT_SET_NO":999,"REV_AT_EPOCH":8486,"BSTAR":0.00098432096,"MEAN_MOTION_DOT":0.00015472,"MEAN_MOTION_DDOT":0},{"OBJECT_NAME":"LEMUR-2-AHMED-ASRAR","OBJECT_ID":"2024-149DN","EPOCH":"2026-03-05T19:46:09.880608","MEAN_MOTION":15.10250752,"ECCENTRICITY":0.00020288,"INCLINATION":97.7039,"RA_OF_ASC_NODE":149.053,"ARG_OF_PERICENTER":35.4272,"MEAN_ANOMALY":324.7091,"EPHEMERIS_TYPE":0,"CLASSIFICATION_TYPE":"U","NORAD_CAT_ID":60576,"ELEMENT_SET_NO":999,"REV_AT_EPOCH":8495,"BSTAR":0.00081225055,"MEAN_MOTION_DOT":0.00013238,"MEAN_MOTION_DDOT":0},{"OBJECT_NAME":"LEMUR-2-LLOYD","OBJECT_ID":"2024-149DP","EPOCH":"2026-03-05T19:24:02.810304","MEAN_MOTION":15.07061886,"ECCENTRICITY":0.00053316,"INCLINATION":97.6797,"RA_OF_ASC_NODE":146.0341,"ARG_OF_PERICENTER":132.9902,"MEAN_ANOMALY":227.1773,"EPHEMERIS_TYPE":0,"CLASSIFICATION_TYPE":"U","NORAD_CAT_ID":60577,"ELEMENT_SET_NO":999,"REV_AT_EPOCH":8481,"BSTAR":0.00081314038,"MEAN_MOTION_DOT":0.00012149,"MEAN_MOTION_DDOT":0},{"OBJECT_NAME":"LEMUR-2-SQUIRRELCOMM","OBJECT_ID":"2024-149DQ","EPOCH":"2026-03-05T16:58:13.364832","MEAN_MOTION":15.05801114,"ECCENTRICITY":0.00061196,"INCLINATION":97.6757,"RA_OF_ASC_NODE":146.0304,"ARG_OF_PERICENTER":53.3686,"MEAN_ANOMALY":306.8102,"EPHEMERIS_TYPE":0,"CLASSIFICATION_TYPE":"U","NORAD_CAT_ID":60578,"ELEMENT_SET_NO":999,"REV_AT_EPOCH":8482,"BSTAR":0.00068801572,"MEAN_MOTION_DOT":9.923e-5,"MEAN_MOTION_DDOT":0},{"OBJECT_NAME":"LEMUR-2-SIERRINI","OBJECT_ID":"2024-149DR","EPOCH":"2026-03-05T16:43:05.970432","MEAN_MOTION":15.08546315,"ECCENTRICITY":0.00062352,"INCLINATION":97.6888,"RA_OF_ASC_NODE":147.0048,"ARG_OF_PERICENTER":161.0262,"MEAN_ANOMALY":199.12,"EPHEMERIS_TYPE":0,"CLASSIFICATION_TYPE":"U","NORAD_CAT_ID":60579,"ELEMENT_SET_NO":999,"REV_AT_EPOCH":8484,"BSTAR":0.00099970418,"MEAN_MOTION_DOT":0.00015575,"MEAN_MOTION_DDOT":0},{"OBJECT_NAME":"LEMUR-2-WILSON","OBJECT_ID":"2025-009CP","EPOCH":"2026-03-05T17:57:28.861344","MEAN_MOTION":14.94649053,"ECCENTRICITY":0.00037159,"INCLINATION":97.7076,"RA_OF_ASC_NODE":145.0465,"ARG_OF_PERICENTER":44.5568,"MEAN_ANOMALY":315.5951,"EPHEMERIS_TYPE":0,"CLASSIFICATION_TYPE":"U","NORAD_CAT_ID":62694,"ELEMENT_SET_NO":999,"REV_AT_EPOCH":6190,"BSTAR":0.00035302287,"MEAN_MOTION_DOT":3.77e-5,"MEAN_MOTION_DDOT":0},{"OBJECT_NAME":"LEMUR-2-STAR-FOX","OBJECT_ID":"2025-009CR","EPOCH":"2026-03-05T17:53:49.521984","MEAN_MOTION":15.0078607,"ECCENTRICITY":0.00022995,"INCLINATION":97.7054,"RA_OF_ASC_NODE":147.2224,"ARG_OF_PERICENTER":161.6004,"MEAN_ANOMALY":198.5304,"EPHEMERIS_TYPE":0,"CLASSIFICATION_TYPE":"U","NORAD_CAT_ID":62696,"ELEMENT_SET_NO":999,"REV_AT_EPOCH":6203,"BSTAR":0.0009965264,"MEAN_MOTION_DOT":0.00012605,"MEAN_MOTION_DDOT":0}]
